{
  "norad_id": 60088,
  "name": "CATCH-1",
  "history": [
    {
      "epoch": "2026-03-28T22:24:11.803680Z",
      "apogee_km": 617.6373378313847,
      "perigee_km": 611.8164779144709,
      "latitude_deg": -3.249233677825045e-05,
      "longitude_deg": 96.85105378223858,
      "height_km": 610.6775469308548,
      "semi_major_axis_km": 6992.8639078729275,
      "eccentricity": 0.0004162,
      "inclination_deg": 28.9948,
      "raan_deg": 259.2471,
      "arg_perigee_deg": 325.1184,
      "mean_anomaly_deg": 34.9136,
      "mean_motion_rev_day": 14.84636548
    }
  ]
}